QIANFAN-147             
1 69106U 26108C   26157.87021847  .00000286  00000+0  13505-3 0  9999
2 69106  89.0119  23.3658 0015631 143.4402 216.7857 14.17033439  2882
QIANFAN-148             
1 69107U 26108D   26157.86419541  .00000284  00000+0  13331-3 0  9996
2 69107  89.0120  23.3651 0016132 148.3299 211.8863 14.17402565  2886
QIANFAN-149             
1 69108U 26108E   26157.86146337  .00000292  00000+0  13583-3 0  9995
2 69108  89.0122  23.3651 0015783 147.5942 212.6220 14.17857107  2888
QIANFAN-150             
1 69109U 26108F   26157.85314154  .00000301  00000+0  13900-3 0  9993
2 69109  89.0123  23.3641 0015817 149.3197 210.8921 14.18305660  2880
QIANFAN-151             
1 69110U 26108G   26157.84757852  .00000314  00000+0  14400-3 0  9990
2 69110  89.0122  23.3630 0015936 147.8965 212.3199 14.18801298  2889
QIANFAN-152             
1 69111U 26108H   26157.84285424  .00000308  00000+0  13945-3 0  9998
2 69111  89.0121  23.3621 0015149 147.8099 212.4019 14.19418605  2882
QIANFAN-153             
1 69112U 26108J   26157.83778198  .00000307  00000+0  13856-3 0  9993
2 69112  89.0118  23.3610 0016346 147.7791 212.4401 14.19641785  2887
QIANFAN-154             
1 69113U 26108K   26157.83109838  .00000310  00000+0  13859-3 0  9990
2 69113  89.0123  23.3608 0016011 145.7058 214.5170 14.20189863  2886
QIANFAN-155             
1 69114U 26108L   26157.83393853  .00000320  00000+0  14468-3 0  9991
2 69114  89.0123  23.3612 0016730 146.0564 214.1700 14.19535242  2885
QIANFAN-156             
1 69115U 26108M   26157.82644325  .00000313  00000+0  13781-3 0  9993
2 69115  89.0126  23.3606 0016355 147.2862 212.9345 14.20957683  2889
QIANFAN-157             
1 69116U 26108N   26157.30898275  .00000375  00000+0  15436-3 0  9999
2 69116  89.0123  23.4118 0016590 153.6669 206.5371 14.24908081  2816
QIANFAN-158             
1 69117U 26108P   26157.82014227  .00000332  00000+0  14390-3 0  9995
2 69117  89.0122  23.3589 0016291 148.6217 211.5950 14.21847179  2881
QIANFAN-159             
1 69118U 26108Q   26157.81617133  .00000343  00000+0  14767-3 0  9990
2 69118  89.0120  23.3581 0015995 148.4653 211.7501 14.22293518  2881
QIANFAN-160             
1 69119U 26108R   26157.81295271  .00000092  00000+0  34591-4 0  9995
2 69119  89.0122  23.3582 0015711 148.2972 211.9169 14.22717359  2889
QIANFAN-161             
1 69120U 26108S   26157.80949471  .00000321  00000+0  13529-3 0  9996
2 69120  89.0122  23.3575 0015727 149.0328 211.1794 14.23188742  2889
QIANFAN-162             
1 69121U 26108T   26157.80741528  .00000339  00000+0  14219-3 0  9996
2 69121  89.0122  23.3571 0015561 150.2102 209.9979 14.23624256  2881
SMILE                   
1 69123U 26109A   26144.65318427 -.00001976  00000+0 -42379-3 0  9994
2 69123  70.0007 229.2745 0009123 259.5159 100.4951 14.57062785   802
STARLINK-37726          
1 69124U 26110A   26157.83335647  .00013544  00000+0  25045-3 0  9997
2 69124  97.2903 353.9544 0001329  91.6692 265.7844 15.49168229  3999
STARLINK-37722          
1 69125U 26110B   26157.83335647 -.02013201  00000+0 -25090-1 0  9990
2 69125  97.2850 354.0877 0001465 113.1425 195.4260 15.63216773  4049
STARLINK-37715          
1 69126U 26110C   26157.83335647 -.02464315  00000+0 -20952-1 0  9999
2 69126  97.2843 354.1271 0001531  82.7160 320.1967 15.73268661  3990
STARLINK-37706          
1 69127U 26110D   26157.83335647 -.02469173  00000+0 -20688-1 0  9993
2 69127  97.2846 354.1300 0001594  83.0058 325.7526 15.73614593  3997
STARLINK-37723          
1 69128U 26110E   26157.83335647 -.02489778  00000+0 -20501-1 0  9991
2 69128  97.2844 354.1329 0001620  76.6226 338.5036 15.74049706  3999
STARLINK-37720          
1 69129U 26110F   26157.83335647  .00087933  00000+0  16040-2 0  9999
2 69129  97.2857 353.9752 0001932  94.9628 311.4494 15.49125297  3996
STARLINK-37533          
1 69130U 26110G   26156.86930582 -.00053675  00000+0 -28200-3 0  9992
2 69130  97.2839 353.1262 0001606  86.5092 273.6360 15.80753113  3851
STARLINK-37530          
1 69131U 26110H   26156.93185300  .00052184  00000+0  27125-3 0  9998
2 69131  97.2840 353.1944 0000830  62.1150 298.0203 15.80840143  3862
STARLINK-37660          
1 69132U 26110J   26157.83335647 -.01902788  00000+0 -21634-1 0  9994
2 69132  97.2845 354.1040 0001291  83.9701 265.3502 15.65339457  3998
STARLINK-37633          
1 69133U 26110K   26157.83335647 -.01053234  00000+0 -11560-1 0  9995
2 69133  97.2849 354.1105 0001398 102.3531 262.5610 15.65906886  3995
STARLINK-37361          
1 69134U 26110L   26157.83335647 -.02499752  00000+0 -18475-1 0  9998
2 69134  97.2840 354.1498 0001698  78.7543  15.1735 15.76520849  3997
STARLINK-37372          
1 69135U 26110M   26157.83335647 -.02589036  00000+0 -27508-1 0  9991
2 69135  97.2848 354.1280 0001542  78.4568 326.4203 15.67514459  3995
