OBJECT_NAME,OBJECT_ID,EPOCH,MEAN_MOTION,ECCENTRICITY,INCLINATION,RA_OF_ASC_NODE,ARG_OF_PERICENTER,MEAN_ANOMALY,EPHEMERIS_TYPE,CLASSIFICATION_TYPE,NORAD_CAT_ID,ELEMENT_SET_NO,REV_AT_EPOCH,BSTAR,MEAN_MOTION_DOT,MEAN_MOTION_DDOT
QIANFAN-147,2026-108C,2026-06-06T20:53:06.875808,14.17033439,.0015631,89.0119,23.3658,143.4402,216.7857,0,U,69106,999,288,.13505E-3,.286E-5,0
QIANFAN-148,2026-108D,2026-06-06T20:44:26.483424,14.17402565,.0016132,89.0120,23.3651,148.3299,211.8863,0,U,69107,999,288,.13331E-3,.284E-5,0
QIANFAN-149,2026-108E,2026-06-06T20:40:30.435168,14.17857107,.0015783,89.0122,23.3651,147.5942,212.6220,0,U,69108,999,288,.13583E-3,.292E-5,0
QIANFAN-150,2026-108F,2026-06-06T20:28:31.429056,14.18305660,.0015817,89.0123,23.3641,149.3197,210.8921,0,U,69109,999,288,.139E-3,.301E-5,0
QIANFAN-151,2026-108G,2026-06-06T20:20:30.784128,14.18801298,.0015936,89.0122,23.3630,147.8965,212.3199,0,U,69110,999,288,.144E-3,.314E-5,0
QIANFAN-152,2026-108H,2026-06-06T20:13:42.606336,14.19418605,.0015149,89.0121,23.3621,147.8099,212.4019,0,U,69111,999,288,.13945E-3,.308E-5,0
QIANFAN-153,2026-108J,2026-06-06T20:06:24.363072,14.19641785,.0016346,89.0118,23.3610,147.7791,212.4401,0,U,69112,999,288,.13856E-3,.307E-5,0
QIANFAN-154,2026-108K,2026-06-06T19:56:46.900032,14.20189863,.0016011,89.0123,23.3608,145.7058,214.5170,0,U,69113,999,288,.13859E-3,.31E-5,0
QIANFAN-155,2026-108L,2026-06-06T20:00:52.288992,14.19535242,.001673,89.0123,23.3612,146.0564,214.1700,0,U,69114,999,288,.14468E-3,.32E-5,0
QIANFAN-156,2026-108M,2026-06-06T19:50:04.696800,14.20957683,.0016355,89.0126,23.3606,147.2862,212.9345,0,U,69115,999,288,.13781E-3,.313E-5,0
QIANFAN-157,2026-108N,2026-06-06T07:24:56.109600,14.24908081,.00165908,89.0123,23.4118,153.6669,206.5371,0,U,69116,999,281,.15435736E-3,.375E-5,0
QIANFAN-158,2026-108P,2026-06-06T19:41:00.292128,14.21847179,.0016291,89.0122,23.3589,148.6217,211.5950,0,U,69117,999,288,.1439E-3,.332E-5,0
QIANFAN-159,2026-108Q,2026-06-06T19:35:17.202912,14.22293518,.0015995,89.0120,23.3581,148.4653,211.7501,0,U,69118,999,288,.14767E-3,.343E-5,0
QIANFAN-160,2026-108R,2026-06-06T19:30:39.114144,14.22717359,.0015711,89.0122,23.3582,148.2972,211.9169,0,U,69119,999,288,.34591E-4,.92E-6,0
QIANFAN-161,2026-108S,2026-06-06T19:25:40.342944,14.23188742,.0015727,89.0122,23.3575,149.0328,211.1794,0,U,69120,999,288,.13529E-3,.321E-5,0
QIANFAN-162,2026-108T,2026-06-06T19:22:40.680192,14.23624256,.0015561,89.0122,23.3571,150.2102,209.9979,0,U,69121,999,288,.14219E-3,.339E-5,0
SMILE,2026-109A,2026-05-24T15:40:35.120928,14.57062785,.00091232,70.0007,229.2745,259.5159,100.4951,0,U,69123,999,80,-.42378883E-3,-.1976E-4,0
STARLINK-37726,2026-110A,2026-06-06T20:00:01.999008,15.49168229,.0001329,97.2903,353.9544,91.6692,265.7844,0,U,69124,999,399,.25045E-3,.13544E-3,0
STARLINK-37722,2026-110B,2026-06-06T20:00:01.999008,15.63216773,.0001465,97.2850,354.0877,113.1425,195.4260,0,U,69125,999,404,-.2509E-1,-.2013201E-1,0
STARLINK-37715,2026-110C,2026-06-06T20:00:01.999008,15.73268661,.0001531,97.2843,354.1271,82.7160,320.1967,0,U,69126,999,399,-.20952E-1,-.2464315E-1,0
STARLINK-37706,2026-110D,2026-06-06T20:00:01.999008,15.73614593,.0001594,97.2846,354.1300,83.0058,325.7526,0,U,69127,999,399,-.20688E-1,-.2469173E-1,0
STARLINK-37723,2026-110E,2026-06-06T20:00:01.999008,15.74049706,.000162,97.2844,354.1329,76.6226,338.5036,0,U,69128,999,399,-.20501E-1,-.2489778E-1,0
STARLINK-37720,2026-110F,2026-06-06T20:00:01.999008,15.49125297,.0001932,97.2857,353.9752,94.9628,311.4494,0,U,69129,999,399,.1604E-2,.87933E-3,0
STARLINK-37533,2026-110G,2026-06-05T20:51:48.022848,15.80753113,.00016063,97.2839,353.1262,86.5092,273.6360,0,U,69130,999,385,-.28200148E-3,-.53675E-3,0
STARLINK-37530,2026-110H,2026-06-05T22:21:52.099200,15.80840143,.000083,97.2840,353.1944,62.1150,298.0203,0,U,69131,999,386,.27125343E-3,.52184E-3,0
STARLINK-37660,2026-110J,2026-06-06T20:00:01.999008,15.65339457,.0001291,97.2845,354.1040,83.9701,265.3502,0,U,69132,999,399,-.21634E-1,-.1902788E-1,0
STARLINK-37633,2026-110K,2026-06-06T20:00:01.999008,15.65906886,.0001398,97.2849,354.1105,102.3531,262.5610,0,U,69133,999,399,-.1156E-1,-.1053234E-1,0
STARLINK-37361,2026-110L,2026-06-06T20:00:01.999008,15.76520849,.0001698,97.2840,354.1498,78.7543,15.1735,0,U,69134,999,399,-.18475E-1,-.2499752E-1,0
STARLINK-37372,2026-110M,2026-06-06T20:00:01.999008,15.67514459,.0001542,97.2848,354.1280,78.4568,326.4203,0,U,69135,999,399,-.27508E-1,-.2589036E-1,0
